[{"OBJECT_NAME":"TROLL","OBJECT_ID":"2025-009BB","EPOCH":"2026-03-09T05:24:19.835712","MEAN_MOTION":15.28164315,"ECCENTRICITY":0.00018165,"INCLINATION":97.3932,"RA_OF_ASC_NODE":150.7169,"ARG_OF_PERICENTER":59.185,"MEAN_ANOMALY":300.9568,"EPHEMERIS_TYPE":0,"CLASSIFICATION_TYPE":"U","NORAD_CAT_ID":62658,"ELEMENT_SET_NO":999,"REV_AT_EPOCH":11817,"BSTAR":0.00048220305,"MEAN_MOTION_DOT":0.00013174,"MEAN_MOTION_DDOT":0},{"OBJECT_NAME":"STARLINK-32902","OBJECT_ID":"2025-024V","EPOCH":"2026-03-09T01:20:52.342368","MEAN_MOTION":15.27572386,"ECCENTRICITY":0.00021903,"INCLINATION":43.0019,"RA_OF_ASC_NODE":328.5403,"ARG_OF_PERICENTER":279.9979,"MEAN_ANOMALY":80.0626,"EPHEMERIS_TYPE":0,"CLASSIFICATION_TYPE":"U","NORAD_CAT_ID":62898,"ELEMENT_SET_NO":999,"REV_AT_EPOCH":6217,"BSTAR":0.0015816344,"MEAN_MOTION_DOT":0.00043509,"MEAN_MOTION_DDOT":0}]
