TROLL                   
1 62658U 25009BB  26068.22522958  .00013174  00000+0  48220-3 0  9994
2 62658  97.3932 150.7169 0001816  59.1850 300.9568 15.28164315118170
STARLINK-32902          
1 62898U 25024V   26068.05616137  .00043509  00000+0  15816-2 0  9990
2 62898  43.0019 328.5403 0002190 279.9979  80.0626 15.27572386 62175
